[
  {
    "name": "STARLINK-3078",
    "noradId": "49134",
    "line1": "1 49134U 21082E   26180.94164371  .00000166  00000+0  21699-4 0  9999",
    "line2": "2 49134  70.0002  11.4324 0002929 269.6681  90.4142 14.98337485263998"
  },
  {
    "name": "STARLINK-3073",
    "noradId": "49135",
    "line1": "1 49135U 21082F   26181.44605027 -.00000078  00000+0  12650-5 0  9995",
    "line2": "2 49135  70.0008 330.1390 0002919 268.0910  91.9915 14.98330834263867"
  },
  {
    "name": "STARLINK-3055",
    "noradId": "49137",
    "line1": "1 49137U 21082H   26181.49898400  .00000056  00000+0  12731-4 0  9995",
    "line2": "2 49137  70.0001 351.1681 0003024 268.1842  91.8970 14.97523382263345"
  },
  {
    "name": "STARLINK-3058",
    "noradId": "49138",
    "line1": "1 49138U 21082J   26181.47154971  .00000237  00000+0  27655-4 0  9994",
    "line2": "2 49138  70.0003  10.0996 0002974 267.9143  92.1675 14.98331029262871"
  },
  {
    "name": "STARLINK-3057",
    "noradId": "49139",
    "line1": "1 49139U 21082K   26181.83335647  .00082382  00000+0  39635-2 0  9996",
    "line2": "2 49139  70.0009 327.8497 0003804 283.3490 168.4339 15.18332539  5805"
  },
  {
    "name": "STARLINK-3093",
    "noradId": "49141",
    "line1": "1 49141U 21082M   26181.53413941  .00000109  00000+0  16939-4 0  9991",
    "line2": "2 49141  70.0005   9.9464 0002664 263.8374  96.2482 14.98329756264081"
  },
  {
    "name": "STARLINK-3109",
    "noradId": "49143",
    "line1": "1 49143U 21082P   26181.49493059 -.00001768  00000+0 -14342-3 0  9995",
    "line2": "2 49143  70.0001 351.1818 0002877 271.3053  88.7775 14.97532334264457"
  },
  {
    "name": "STARLINK-3100",
    "noradId": "49144",
    "line1": "1 49144U 21082Q   26181.52579302 -.00000176  00000+0 -69692-5 0  9998",
    "line2": "2 49144  70.0001   9.9468 0002959 267.3776  92.7044 14.98329802262889"
  },
  {
    "name": "STARLINK-3119",
    "noradId": "49145",
    "line1": "1 49145U 21082R   26181.80905759  .00000106  00000+0  16672-4 0  9999",
    "line2": "2 49145  70.0002 329.2255 0003347 266.6995  93.3781 14.98328497263908"
  },
  {
    "name": "STARLINK-3116",
    "noradId": "49146",
    "line1": "1 49146U 21082S   26181.49077861  .00002644  00000+0  23410-3 0  9995",
    "line2": "2 49146  69.9997 351.1958 0002958 264.5308  95.5513 14.97512254264492"
  },
  {
    "name": "STARLINK-3071",
    "noradId": "49147",
    "line1": "1 49147U 21082T   26181.48777501  .00000338  00000+0  36131-4 0  9996",
    "line2": "2 49147  70.0001 330.0536 0003112 268.5715  91.5087 14.98330891263867"
  },
  {
    "name": "STARLINK-3048",
    "noradId": "49148",
    "line1": "1 49148U 21082U   26181.48240694 -.00003736  00000+0 -31191-3 0  9992",
    "line2": "2 49148  70.0001 351.1949 0002099 270.8434  89.2484 14.97530037263337"
  },
  {
    "name": "STARLINK-3102",
    "noradId": "49151",
    "line1": "1 49151U 21082X   26181.46691213 -.00000080  00000+0  11172-5 0  9998",
    "line2": "2 49151  70.0003 330.0963 0003143 270.6454  89.4345 14.98330467265051"
  },
  {
    "name": "STARLINK-3072",
    "noradId": "49153",
    "line1": "1 49153U 21082Z   26181.45856812  .00000175  00000+0  22413-4 0  9990",
    "line2": "2 49153  70.0008 330.1250 0002458 272.7492  87.3386 14.98330930265069"
  },
  {
    "name": "STARLINK-3068",
    "noradId": "49154",
    "line1": "1 49154U 21082AA  26181.47823582  .00000123  00000+0  18407-4 0  9992",
    "line2": "2 49154  70.0003 351.2098 0002726 269.8697  90.2149 14.97521060264414"
  },
  {
    "name": "STARLINK-3060",
    "noradId": "49155",
    "line1": "1 49155U 21082AB  26181.45439455  .00000066  00000+0  13358-4 0  9999",
    "line2": "2 49155  70.0009 330.1265 0003057 268.2931  91.7878 14.98329270264937"
  },
  {
    "name": "STARLINK-3085",
    "noradId": "49156",
    "line1": "1 49156U 21082AC  26181.50029233  .00000224  00000+0  26551-4 0  9990",
    "line2": "2 49156  70.0005 330.0122 0003071 267.3800  92.7007 14.98329177264948"
  },
  {
    "name": "STARLINK-3051",
    "noradId": "49157",
    "line1": "1 49157U 21082AD  26180.78717710  .00008145  00000+0  56559-3 0  9994",
    "line2": "2 49157  69.9986 346.0788 0001349 125.5061 234.6228 15.05886186264500"
  },
  {
    "name": "STARLINK-3083",
    "noradId": "49158",
    "line1": "1 49158U 21082AE  26181.47905367  .00076412  00000+0  41208-3 0  9996",
    "line2": "2 49158  69.9590 215.1312 0004571 289.3604  70.7102 15.79791182267777"
  },
  {
    "name": "STARLINK-3056",
    "noradId": "49159",
    "line1": "1 49159U 21082AF  26181.51327715 -.00000648  00000+0 -46536-4 0  9997",
    "line2": "2 49159  70.0002   9.9888 0002665 267.2611  92.8243 14.98330698263971"
  },
  {
    "name": "STARLINK-3095",
    "noradId": "49160",
    "line1": "1 49160U 21082AG  26181.50075831 -.00000442  00000+0 -29231-4 0  9992",
    "line2": "2 49160  70.0001  10.0019 0002879 268.4962  91.5867 14.98327353263949"
  },
  {
    "name": "STARLINK-3080",
    "noradId": "49161",
    "line1": "1 49161U 21082AH  26180.97084633  .00000433  00000+0  44056-4 0  9993",
    "line2": "2 49161  70.0000  11.3340 0002757 267.3104  92.7739 14.98333432263879"
  },
  {
    "name": "STARLINK-3088",
    "noradId": "49163",
    "line1": "1 49163U 21082AK  26180.86454559  .00000204  00000+0  25323-4 0  9993",
    "line2": "2 49163  70.0000 352.7662 0002952 270.2247  89.8574 14.97524248264408"
  },
  {
    "name": "STARLINK-3106",
    "noradId": "49164",
    "line1": "1 49164U 21082AL  26180.92889111  .00000187  00000+0  23493-4 0  9993",
    "line2": "2 49164  70.0001 351.4580 0003024 267.5192  92.5620 14.98332181264445"
  },
  {
    "name": "STARLINK-3052",
    "noradId": "49165",
    "line1": "1 49165U 21082AM  26181.49658428  .00000361  00000+0  38010-4 0  9997",
    "line2": "2 49165  70.0000  10.0439 0002894 271.0326  89.0501 14.98331261264075"
  },
  {
    "name": "STARLINK-3089",
    "noradId": "49166",
    "line1": "1 49166U 21082AN  26180.92716672 -.00000590  00000+0 -42596-4 0  9991",
    "line2": "2 49166  70.0000 352.6114 0002961 270.0425  90.0394 14.97526331264452"
  },
  {
    "name": "STARLINK-3054",
    "noradId": "49167",
    "line1": "1 49167U 21082AP  26181.48824385  .00000451  00000+0  45558-4 0  9990",
    "line2": "2 49167  70.0001  10.0446 0003137 269.1431  90.9368 14.98329103264076"
  },
  {
    "name": "STARLINK-3046",
    "noradId": "49169",
    "line1": "1 49169U 21082AR  26180.92471988 -.00000111  00000+0 -14997-5 0  9996",
    "line2": "2 49169  70.0003 351.4809 0002893 266.6973  93.3855 14.98329373263285"
  },
  {
    "name": "STARLINK-3107",
    "noradId": "49171",
    "line1": "1 49171U 21082AT  26180.91832872  .00026831  00000+0  14298-2 0  9997",
    "line2": "2 49171  69.9939 358.4161 0001479 137.6954 222.4328 15.15110102264274"
  },
  {
    "name": "STARLINK-3045",
    "noradId": "49173",
    "line1": "1 49173U 21082AV  26180.91219856  .00000736  00000+0  69433-4 0  9999",
    "line2": "2 49173  69.9998 351.4945 0002842 269.0943  90.9890 14.98334429263289"
  }
]