OBJECT_NAME,OBJECT_ID,EPOCH,MEAN_MOTION,ECCENTRICITY,INCLINATION,RA_OF_ASC_NODE,ARG_OF_PERICENTER,MEAN_ANOMALY,EPHEMERIS_TYPE,CLASSIFICATION_TYPE,NORAD_CAT_ID,ELEMENT_SET_NO,REV_AT_EPOCH,BSTAR,MEAN_MOTION_DOT,MEAN_MOTION_DDOT
STARLINK-3078,2021-082E,2026-06-29T22:35:58.016544,14.98337485,.00029295,70.0002,11.4324,269.6681,90.4142,0,U,49134,999,26399,.21699003E-4,.166E-5,0
STARLINK-3073,2021-082F,2026-06-30T10:42:18.743328,14.98330834,.00029193,70.0008,330.1390,268.0910,91.9915,0,U,49135,999,26386,.1265022E-5,-.78E-6,0
STARLINK-3055,2021-082H,2026-06-30T11:58:32.217600,14.97523382,.00030249,70.0001,351.1681,268.1842,91.8970,0,U,49137,999,26334,.12730987E-4,.56E-6,0
STARLINK-3058,2021-082J,2026-06-30T11:19:01.894944,14.98331029,.00029747,70.0003,10.0996,267.9143,92.1675,0,U,49138,999,26287,.27654642E-4,.237E-5,0
STARLINK-3057,2021-082K,2026-06-30T20:00:01.999008,15.18332539,.0003804,70.0009,327.8497,283.3490,168.4339,0,U,49139,999,580,.39635E-2,.82382E-3,0
STARLINK-3093,2021-082M,2026-06-30T12:49:09.645024,14.98329756,.00026641,70.0005,9.9464,263.8374,96.2482,0,U,49141,999,26408,.16939046E-4,.109E-5,0
STARLINK-3109,2021-082P,2026-06-30T11:52:42.002976,14.97532334,.00028778,70.0001,351.1818,271.3053,88.7775,0,U,49143,999,26445,-.14342122E-3,-.1768E-4,0
STARLINK-3100,2021-082Q,2026-06-30T12:37:08.516928,14.98329802,.00029597,70.0001,9.9468,267.3776,92.7044,0,U,49144,999,26288,-.6969245E-5,-.176E-5,0
STARLINK-3119,2021-082R,2026-06-30T19:25:02.575776,14.98328497,.0003347,70.0002,329.2255,266.6995,93.3781,0,U,49145,999,26390,.16672E-4,.106E-5,0
STARLINK-3116,2021-082S,2026-06-30T11:46:43.271904,14.97512254,.00029583,69.9997,351.1958,264.5308,95.5513,0,U,49146,999,26449,.23410017E-3,.2644E-4,0
STARLINK-3071,2021-082T,2026-06-30T11:42:23.760864,14.98330891,.00031128,70.0001,330.0536,268.5715,91.5087,0,U,49147,999,26386,.3613097E-4,.338E-5,0
STARLINK-3048,2021-082U,2026-06-30T11:34:39.959616,14.97530037,.00020996,70.0001,351.1949,270.8434,89.2484,0,U,49148,999,26333,-.31191093E-3,-.3736E-4,0
STARLINK-3102,2021-082X,2026-06-30T11:12:21.208032,14.98330467,.00031436,70.0003,330.0963,270.6454,89.4345,0,U,49151,999,26505,.1117202E-5,-.8E-6,0
STARLINK-3072,2021-082Z,2026-06-30T11:00:20.285568,14.98330930,.00024587,70.0008,330.1250,272.7492,87.3386,0,U,49153,999,26506,.22413436E-4,.175E-5,0
STARLINK-3068,2021-082AA,2026-06-30T11:28:39.574848,14.97521060,.00027265,70.0003,351.2098,269.8697,90.2149,0,U,49154,999,26441,.18406623E-4,.123E-5,0
STARLINK-3060,2021-082AB,2026-06-30T10:54:19.689120,14.98329270,.0003057,70.0009,330.1265,268.2931,91.7878,0,U,49155,999,26493,.13357959E-4,.66E-6,0
STARLINK-3085,2021-082AC,2026-06-30T12:00:25.257312,14.98329177,.00030719,70.0005,330.0122,267.3800,92.7007,0,U,49156,999,26494,.26551079E-4,.224E-5,0
STARLINK-3051,2021-082AD,2026-06-29T18:53:32.101440,15.05886186,.0001349,69.9986,346.0788,125.5061,234.6228,0,U,49157,999,26450,.5655868E-3,.8145E-4,0
STARLINK-3083,2021-082AE,2026-06-30T11:29:50.237088,15.79791182,.00045714,69.9590,215.1312,289.3604,70.7102,0,U,49158,999,26777,.41207875E-3,.76412E-3,0
STARLINK-3056,2021-082AF,2026-06-30T12:19:07.145760,14.98330698,.00026653,70.0002,9.9888,267.2611,92.8243,0,U,49159,999,26397,-.46535658E-4,-.648E-5,0
STARLINK-3095,2021-082AG,2026-06-30T12:01:05.517984,14.98327353,.00028793,70.0001,10.0019,268.4962,91.5867,0,U,49160,999,26394,-.29230899E-4,-.442E-5,0
STARLINK-3080,2021-082AH,2026-06-29T23:18:01.122912,14.98333432,.00027579,70.0000,11.3340,267.3104,92.7739,0,U,49161,999,26387,.44055529E-4,.433E-5,0
STARLINK-3088,2021-082AK,2026-06-29T20:44:56.738976,14.97524248,.00029521,70.0000,352.7662,270.2247,89.8574,0,U,49163,999,26440,.25323404E-4,.204E-5,0
STARLINK-3106,2021-082AL,2026-06-29T22:17:36.191904,14.98332181,.0003024,70.0001,351.4580,267.5192,92.5620,0,U,49164,999,26444,.23493078E-4,.187E-5,0
STARLINK-3052,2021-082AM,2026-06-30T11:55:04.881792,14.98331261,.0002894,70.0000,10.0439,271.0326,89.0501,0,U,49165,999,26407,.38009899E-4,.361E-5,0
STARLINK-3089,2021-082AN,2026-06-29T22:15:07.204608,14.97526331,.00029619,70.0000,352.6114,270.0425,90.0394,0,U,49166,999,26445,-.42596327E-4,-.59E-5,0
STARLINK-3054,2021-082AP,2026-06-30T11:43:04.268640,14.98329103,.00031373,70.0001,10.0446,269.1431,90.9368,0,U,49167,999,26407,.45557575E-4,.451E-5,0
STARLINK-3046,2021-082AR,2026-06-29T22:11:35.797632,14.98329373,.00028936,70.0003,351.4809,266.6973,93.3855,0,U,49169,999,26328,-.1499741E-5,-.111E-5,0
STARLINK-3107,2021-082AT,2026-06-29T22:02:23.601408,15.15110102,.00014796,69.9939,358.4161,137.6954,222.4328,0,U,49171,999,26427,.14298379E-2,.26831E-3,0
STARLINK-3045,2021-082AV,2026-06-29T21:53:33.955584,14.98334429,.00028427,69.9998,351.4945,269.0943,90.9890,0,U,49173,999,26328,.69432785E-4,.736E-5,0
